CCSDS_OMM_VERS = 2.0
CREATION_DATE  = 
ORIGINATOR     = 

OBJECT_NAME    = COSMOS 2058
OBJECT_ID      = 1990-010A
CENTER_NAME    = EARTH
REF_FRAME      = TEME
TIME_SYSTEM    = UTC
MEAN_ELEMENT_THEORY = SGP/SGP4

EPOCH          = 2026-03-07T22:14:26.765952
MEAN_MOTION    = 15.11303199
ECCENTRICITY   = .00095304
INCLINATION    = 82.4670
RA_OF_ASC_NODE = 49.1648
ARG_OF_PERICENTER = 349.7285
MEAN_ANOMALY   = 10.3748

EPHEMERIS_TYPE = 0
CLASSIFICATION_TYPE = U
NORAD_CAT_ID   = 20465
ELEMENT_SET_NO = 999
REV_AT_EPOCH   = 94197
BSTAR          = .37001251E-3
MEAN_MOTION_DOT = .6264E-4
MEAN_MOTION_DDOT = 0

CCSDS_OMM_VERS = 2.0
CREATION_DATE  = 
ORIGINATOR     = 

OBJECT_NAME    = SL-14 R/B
OBJECT_ID      = 1990-010B
CENTER_NAME    = EARTH
REF_FRAME      = TEME
TIME_SYSTEM    = UTC
MEAN_ELEMENT_THEORY = SGP/SGP4

EPOCH          = 2026-03-08T00:01:03.307872
MEAN_MOTION    = 14.83567396
ECCENTRICITY   = .0018647
INCLINATION    = 82.4988
RA_OF_ASC_NODE = 268.9758
ARG_OF_PERICENTER = 308.2731
MEAN_ANOMALY   = 51.6806

EPHEMERIS_TYPE = 0
CLASSIFICATION_TYPE = U
NORAD_CAT_ID   = 20466
ELEMENT_SET_NO = 999
REV_AT_EPOCH   = 92823
BSTAR          = .65661E-4
MEAN_MOTION_DOT = .566E-5
MEAN_MOTION_DDOT = 0

CCSDS_OMM_VERS = 2.0
CREATION_DATE  = 
ORIGINATOR     = 

OBJECT_NAME    = SL-14 R/B
OBJECT_ID      = 1990-018B
CENTER_NAME    = EARTH
REF_FRAME      = TEME
TIME_SYSTEM    = UTC
MEAN_ELEMENT_THEORY = SGP/SGP4

EPOCH          = 2026-03-07T16:18:19.850688
MEAN_MOTION    = 14.82142606
ECCENTRICITY   = .00176544
INCLINATION    = 82.5199
RA_OF_ASC_NODE = 224.9687
ARG_OF_PERICENTER = 98.1299
MEAN_ANOMALY   = 262.1919

EPHEMERIS_TYPE = 0
CLASSIFICATION_TYPE = U
NORAD_CAT_ID   = 20511
ELEMENT_SET_NO = 999
REV_AT_EPOCH   = 92228
BSTAR          = .92051169E-4
MEAN_MOTION_DOT = .758E-5
MEAN_MOTION_DDOT = 0

CCSDS_OMM_VERS = 2.0
CREATION_DATE  = 
ORIGINATOR     = 

OBJECT_NAME    = HST
OBJECT_ID      = 1990-037B
CENTER_NAME    = EARTH
REF_FRAME      = TEME
TIME_SYSTEM    = UTC
MEAN_ELEMENT_THEORY = SGP/SGP4

EPOCH          = 2026-03-08T01:12:43.886880
MEAN_MOTION    = 15.29454135
ECCENTRICITY   = .0001798
INCLINATION    = 28.4714
RA_OF_ASC_NODE = 51.1800
ARG_OF_PERICENTER = 110.1034
MEAN_ANOMALY   = 249.9755

EPHEMERIS_TYPE = 0
CLASSIFICATION_TYPE = U
NORAD_CAT_ID   = 20580
ELEMENT_SET_NO = 999
REV_AT_EPOCH   = 77306
BSTAR          = .36739E-3
MEAN_MOTION_DOT = .11037E-3
MEAN_MOTION_DDOT = 0

CCSDS_OMM_VERS = 2.0
CREATION_DATE  = 
ORIGINATOR     = 

OBJECT_NAME    = SL-16 R/B
OBJECT_ID      = 1990-046B
CENTER_NAME    = EARTH
REF_FRAME      = TEME
TIME_SYSTEM    = UTC
MEAN_ELEMENT_THEORY = SGP/SGP4

EPOCH          = 2026-03-07T18:55:27.348672
MEAN_MOTION    = 14.15013122
ECCENTRICITY   = .00162142
INCLINATION    = 70.9991
RA_OF_ASC_NODE = 301.9077
ARG_OF_PERICENTER = 302.1457
MEAN_ANOMALY   = 57.8092

EPHEMERIS_TYPE = 0
CLASSIFICATION_TYPE = U
NORAD_CAT_ID   = 20625
ELEMENT_SET_NO = 999
REV_AT_EPOCH   = 84812
BSTAR          = -.10216316E-3
MEAN_MOTION_DOT = -.246E-5
MEAN_MOTION_DDOT = 0

CCSDS_OMM_VERS = 2.0
CREATION_DATE  = 
ORIGINATOR     = 

OBJECT_NAME    = SL-6 R/B(2)
OBJECT_ID      = 1990-055D
CENTER_NAME    = EARTH
REF_FRAME      = TEME
TIME_SYSTEM    = UTC
MEAN_ELEMENT_THEORY = SGP/SGP4

EPOCH          = 2026-03-07T23:24:43.404768
MEAN_MOTION    = 15.03585528
ECCENTRICITY   = .00243938
INCLINATION    = 62.7823
RA_OF_ASC_NODE = 259.6802
ARG_OF_PERICENTER = 346.5975
MEAN_ANOMALY   = 13.4473

EPHEMERIS_TYPE = 0
CLASSIFICATION_TYPE = U
NORAD_CAT_ID   = 20666
ELEMENT_SET_NO = 999
REV_AT_EPOCH   = 93793
BSTAR          = .231485E-3
MEAN_MOTION_DOT = .2998E-4
MEAN_MOTION_DDOT = 0

CCSDS_OMM_VERS = 2.0
CREATION_DATE  = 
ORIGINATOR     = 

OBJECT_NAME    = SL-8 R/B
OBJECT_ID      = 1990-078B
CENTER_NAME    = EARTH
REF_FRAME      = TEME
TIME_SYSTEM    = UTC
MEAN_ELEMENT_THEORY = SGP/SGP4

EPOCH          = 2026-03-07T13:25:57.571968
MEAN_MOTION    = 14.88972174
ECCENTRICITY   = .0362756
INCLINATION    = 82.9000
RA_OF_ASC_NODE = 253.2268
ARG_OF_PERICENTER = 21.1646
MEAN_ANOMALY   = 340.4147

EPHEMERIS_TYPE = 0
CLASSIFICATION_TYPE = U
NORAD_CAT_ID   = 20775
ELEMENT_SET_NO = 999
REV_AT_EPOCH   = 80898
BSTAR          = .5686E-3
MEAN_MOTION_DOT = .19315E-3
MEAN_MOTION_DDOT = 0

CCSDS_OMM_VERS = 2.0
CREATION_DATE  = 
ORIGINATOR     = 

OBJECT_NAME    = SL-8 R/B
OBJECT_ID      = 1991-006B
CENTER_NAME    = EARTH
REF_FRAME      = TEME
TIME_SYSTEM    = UTC
MEAN_ELEMENT_THEORY = SGP/SGP4

EPOCH          = 2026-03-07T19:40:48.050112
MEAN_MOTION    = 13.77493949
ECCENTRICITY   = .00231926
INCLINATION    = 82.9466
RA_OF_ASC_NODE = 171.4358
ARG_OF_PERICENTER = 43.4194
MEAN_ANOMALY   = 75.1074

EPHEMERIS_TYPE = 0
CLASSIFICATION_TYPE = U
NORAD_CAT_ID   = 21088
ELEMENT_SET_NO = 999
REV_AT_EPOCH   = 76381
BSTAR          = .70243322E-4
MEAN_MOTION_DOT = .85E-6
MEAN_MOTION_DDOT = 0

CCSDS_OMM_VERS = 2.0
CREATION_DATE  = 
ORIGINATOR     = 

OBJECT_NAME    = OKEAN-3
OBJECT_ID      = 1991-039A
CENTER_NAME    = EARTH
REF_FRAME      = TEME
TIME_SYSTEM    = UTC
MEAN_ELEMENT_THEORY = SGP/SGP4

EPOCH          = 2026-03-08T00:23:56.056992
MEAN_MOTION    = 15.04789462
ECCENTRICITY   = .0014089
INCLINATION    = 82.5189
RA_OF_ASC_NODE = 338.4641
ARG_OF_PERICENTER = 344.4478
MEAN_ANOMALY   = 15.6314

EPHEMERIS_TYPE = 0
CLASSIFICATION_TYPE = U
NORAD_CAT_ID   = 21397
ELEMENT_SET_NO = 999
REV_AT_EPOCH   = 86478
BSTAR          = .34877E-3
MEAN_MOTION_DOT = .4957E-4
MEAN_MOTION_DDOT = 0

CCSDS_OMM_VERS = 2.0
CREATION_DATE  = 
ORIGINATOR     = 

OBJECT_NAME    = COSMOS 2151
OBJECT_ID      = 1991-042A
CENTER_NAME    = EARTH
REF_FRAME      = TEME
TIME_SYSTEM    = UTC
MEAN_ELEMENT_THEORY = SGP/SGP4

EPOCH          = 2026-03-08T00:22:40.714464
MEAN_MOTION    = 15.00098202
ECCENTRICITY   = .001401
INCLINATION    = 82.4930
RA_OF_ASC_NODE = 85.2914
ARG_OF_PERICENTER = 68.9022
MEAN_ANOMALY   = 291.3698

EPHEMERIS_TYPE = 0
CLASSIFICATION_TYPE = U
NORAD_CAT_ID   = 21422
ELEMENT_SET_NO = 999
REV_AT_EPOCH   = 86294
BSTAR          = .18278E-3
MEAN_MOTION_DOT = .2309E-4
MEAN_MOTION_DDOT = 0

CCSDS_OMM_VERS = 2.0
CREATION_DATE  = 
ORIGINATOR     = 

OBJECT_NAME    = SL-14 R/B
OBJECT_ID      = 1991-042B
CENTER_NAME    = EARTH
REF_FRAME      = TEME
TIME_SYSTEM    = UTC
MEAN_ELEMENT_THEORY = SGP/SGP4

EPOCH          = 2026-03-07T19:11:16.111392
MEAN_MOTION    = 14.81827530
ECCENTRICITY   = .0015718
INCLINATION    = 82.4919
RA_OF_ASC_NODE = 221.9547
ARG_OF_PERICENTER = 245.3722
MEAN_ANOMALY   = 114.5855

EPHEMERIS_TYPE = 0
CLASSIFICATION_TYPE = U
NORAD_CAT_ID   = 21423
ELEMENT_SET_NO = 999
REV_AT_EPOCH   = 85279
BSTAR          = .88447332E-4
MEAN_MOTION_DOT = .723E-5
MEAN_MOTION_DDOT = 0

