COSMOS 2058             
1 20465U 90010A   26066.92669868  .00006264  00000+0  37001-3 0  9992
2 20465  82.4670  49.1648 0009530 349.7285  10.3748 15.11303199941979
SL-14 R/B               
1 20466U 90010B   26067.00073273  .00000566  00000+0  65661-4 0  9995
2 20466  82.4988 268.9758 0018647 308.2731  51.6806 14.83567396928236
SL-14 R/B               
1 20511U 90018B   26066.67939642  .00000758  00000+0  92051-4 0  9993
2 20511  82.5199 224.9687 0017654  98.1299 262.1919 14.82142606922281
HST                     
1 20580U 90037B   26067.05050795  .00011037  00000+0  36739-3 0  9998
2 20580  28.4714  51.1800 0001798 110.1034 249.9755 15.29454135773066
SL-16 R/B               
1 20625U 90046B   26066.78851097 -.00000246  00000+0 -10216-3 0  9995
2 20625  70.9991 301.9077 0016214 302.1457  57.8092 14.15013122848129
SL-6 R/B(2)             
1 20666U 90055D   26066.97550237  .00002998  00000+0  23148-3 0  9995
2 20666  62.7823 259.6802 0024394 346.5975  13.4473 15.03585528937938
SL-8 R/B                
1 20775U 90078B   26066.55969412  .00019315  00000+0  56860-3 0  9992
2 20775  82.9000 253.2268 0362756  21.1646 340.4147 14.88972174808986
SL-8 R/B                
1 21088U 91006B   26066.82000058  .00000085  00000+0  70243-4 0  9990
2 21088  82.9466 171.4358 0023193  43.4194  75.1074 13.77493949763813
OKEAN-3                 
1 21397U 91039A   26067.01662103  .00004957  00000+0  34877-3 0  9990
2 21397  82.5189 338.4641 0014089 344.4478  15.6314 15.04789462864781
COSMOS 2151             
1 21422U 91042A   26067.01574901  .00002309  00000+0  18278-3 0  9997
2 21422  82.4930  85.2914 0014010  68.9022 291.3698 15.00098202862945
SL-14 R/B               
1 21423U 91042B   26066.79949203  .00000723  00000+0  88447-4 0  9997
2 21423  82.4919 221.9547 0015718 245.3722 114.5855 14.81827530852793
